{
  "type": "FeatureCollection",
  "features": [
    {
      "type": "Feature",
      "properties": {
        "norad_id": 34079,
        "name": "IRIDIUM 33 DEB",
        "group": "iridium-33-debris",
        "lat": -11.10868169869438,
        "lon": -174.70063406795026,
        "alt_km": 624.6614962044277,
        "timestamp": "2025-12-21T16:47:55.123479+00:00",
        "meta_object_name": "IRIDIUM 33 DEB",
        "meta_object_id": "1997-051CN",
        "meta_epoch": "2025-12-21T01:41:36.962880",
        "meta_mean_motion": 14.83721839,
        "meta_eccentricity": 0.0004623,
        "meta_inclination": 86.3769,
        "meta_ra_of_asc_node": 4.8728,
        "meta_arg_of_pericenter": 338.2576,
        "meta_mean_anomaly": 93.2385,
        "meta_ephemeris_type": 0,
        "meta_classification_type": "U",
        "meta_norad_cat_id": 34079,
        "meta_element_set_no": 999,
        "meta_rev_at_epoch": 89101,
        "meta_bstar": 0.0010935828,
        "meta_mean_motion_dot": 9.07e-05,
        "meta_mean_motion_ddot": 0,
        "tle_line1": "1 34079U 97051CN  25355.07056670  .00009070  00000+0  10936-2 0  9992",
        "tle_line2": "2 34079  86.3769   4.8728 0004623 338.2576  93.2385 14.83721839891017"
      },
      "geometry": {
        "type": "Point",
        "coordinates": [
          -174.70063406795026,
          -11.10868169869438
        ]
      }
    },
    {
      "type": "Feature",
      "properties": {
        "norad_id": 34088,
        "name": "IRIDIUM 33 DEB",
        "group": "iridium-33-debris",
        "lat": 1.6054088697315356,
        "lon": -153.49575924464312,
        "alt_km": 591.4279044804225,
        "timestamp": "2025-12-21T16:47:55.123489+00:00",
        "meta_object_name": "IRIDIUM 33 DEB",
        "meta_object_id": "1997-051CX",
        "meta_epoch": "2025-12-21T01:45:27.066816",
        "meta_mean_motion": 14.91723187,
        "meta_eccentricity": 0.00066274,
        "meta_inclination": 86.3839,
        "meta_ra_of_asc_node": 26.8939,
        "meta_arg_of_pericenter": 150.3729,
        "meta_mean_anomaly": 264.499,
        "meta_ephemeris_type": 0,
        "meta_classification_type": "U",
        "meta_norad_cat_id": 34088,
        "meta_element_set_no": 999,
        "meta_rev_at_epoch": 88866,
        "meta_bstar": 0.001445423,
        "meta_mean_motion_dot": 0.00014591,
        "meta_mean_motion_ddot": 0,
        "tle_line1": "1 34088U 97051CX  25355.07322994  .00014591  00000+0  14454-2 0  9990",
        "tle_line2": "2 34088  86.3839  26.8939 0006627 150.3729 264.4990 14.91723187888660"
      },
      "geometry": {
        "type": "Point",
        "coordinates": [
          -153.49575924464312,
          1.6054088697315356
        ]
      }
    },
    {
      "type": "Feature",
      "properties": {
        "norad_id": 34091,
        "name": "IRIDIUM 33 DEB",
        "group": "iridium-33-debris",
        "lat": 59.743784222098334,
        "lon": 69.02643627690775,
        "alt_km": 638.3345298121721,
        "timestamp": "2025-12-21T16:47:55.123500+00:00",
        "meta_object_name": "IRIDIUM 33 DEB",
        "meta_object_id": "1997-051DA",
        "meta_epoch": "2025-12-21T05:11:15.309888",
        "meta_mean_motion": 14.82383169,
        "meta_eccentricity": 0.0034138,
        "meta_inclination": 86.3414,
        "meta_ra_of_asc_node": 62.9508,
        "meta_arg_of_pericenter": 262.7173,
        "meta_mean_anomaly": 97.0169,
        "meta_ephemeris_type": 0,
        "meta_classification_type": "U",
        "meta_norad_cat_id": 34091,
        "meta_element_set_no": 999,
        "meta_rev_at_epoch": 87992,
        "meta_bstar": 0.0035697,
        "meta_mean_motion_dot": 0.00028976,
        "meta_mean_motion_ddot": 0,
        "tle_line1": "1 34091U 97051DA  25355.21614942  .00028976  00000+0  35697-2 0  9991",
        "tle_line2": "2 34091  86.3414  62.9508 0034138 262.7173  97.0169 14.82383169879924"
      },
      "geometry": {
        "type": "Point",
        "coordinates": [
          69.02643627690775,
          59.743784222098334
        ]
      }
    },
    {
      "type": "Feature",
      "properties": {
        "norad_id": 34097,
        "name": "IRIDIUM 33 DEB",
        "group": "iridium-33-debris",
        "lat": -42.590154342524094,
        "lon": -179.0449475753974,
        "alt_km": 802.1159245861618,
        "timestamp": "2025-12-21T16:47:55.123510+00:00",
        "meta_object_name": "IRIDIUM 33 DEB",
        "meta_object_id": "1997-051DG",
        "meta_epoch": "2025-12-21T12:24:38.765376",
        "meta_mean_motion": 14.3484137,
        "meta_eccentricity": 0.0081714,
        "meta_inclination": 86.1998,
        "meta_ra_of_asc_node": 357.5329,
        "meta_arg_of_pericenter": 333.4635,
        "meta_mean_anomaly": 26.2387,
        "meta_ephemeris_type": 0,
        "meta_classification_type": "U",
        "meta_norad_cat_id": 34097,
        "meta_element_set_no": 999,
        "meta_rev_at_epoch": 87245,
        "meta_bstar": 0.0011354,
        "meta_mean_motion_dot": 3.364e-05,
        "meta_mean_motion_ddot": 0,
        "tle_line1": "1 34097U 97051DG  25355.51711534  .00003364  00000+0  11354-2 0  9993",
        "tle_line2": "2 34097  86.1998 357.5329 0081714 333.4635  26.2387 14.34841370872457"
      },
      "geometry": {
        "type": "Point",
        "coordinates": [
          -179.0449475753974,
          -42.590154342524094
        ]
      }
    },
    {
      "type": "Feature",
      "properties": {
        "norad_id": 34145,
        "name": "IRIDIUM 33 DEB",
        "group": "iridium-33-debris",
        "lat": 13.933946240234452,
        "lon": -30.522760873839644,
        "alt_km": 726.83798562009,
        "timestamp": "2025-12-21T16:47:55.123521+00:00",
        "meta_object_name": "IRIDIUM 33 DEB",
        "meta_object_id": "1997-051DY",
        "meta_epoch": "2025-12-21T08:24:33.903360",
        "meta_mean_motion": 14.42344558,
        "meta_eccentricity": 0.0055699,
        "meta_inclination": 86.2119,
        "meta_ra_of_asc_node": 328.691,
        "meta_arg_of_pericenter": 66.4729,
        "meta_mean_anomaly": 294.2309,
        "meta_ephemeris_type": 0,
        "meta_classification_type": "U",
        "meta_norad_cat_id": 34145,
        "meta_element_set_no": 999,
        "meta_rev_at_epoch": 87762,
        "meta_bstar": 0.00088327,
        "meta_mean_motion_dot": 2.992e-05,
        "meta_mean_motion_ddot": 0,
        "tle_line1": "1 34145U 97051DY  25355.35039240  .00002992  00000+0  88327-3 0  9997",
        "tle_line2": "2 34145  86.2119 328.6910 0055699  66.4729 294.2309 14.42344558877622"
      },
      "geometry": {
        "type": "Point",
        "coordinates": [
          -30.522760873839644,
          13.933946240234452
        ]
      }
    },
    {
      "type": "Feature",
      "properties": {
        "norad_id": 34146,
        "name": "IRIDIUM 33 DEB",
        "group": "iridium-33-debris",
        "lat": -50.020983313412,
        "lon": 170.2878398102953,
        "alt_km": 721.0822523598445,
        "timestamp": "2025-12-21T16:47:55.123531+00:00",
        "meta_object_name": "IRIDIUM 33 DEB",
        "meta_object_id": "1997-051DZ",
        "meta_epoch": "2025-12-21T11:20:47.029056",
        "meta_mean_motion": 14.49100968,
        "meta_eccentricity": 0.0026382,
        "meta_inclination": 86.2834,
        "meta_ra_of_asc_node": 345.942,
        "meta_arg_of_pericenter": 191.3369,
        "meta_mean_anomaly": 294.1823,
        "meta_ephemeris_type": 0,
        "meta_classification_type": "U",
        "meta_norad_cat_id": 34146,
        "meta_element_set_no": 999,
        "meta_rev_at_epoch": 88233,
        "meta_bstar": 0.00067307,
        "meta_mean_motion_dot": 2.588e-05,
        "meta_mean_motion_ddot": 0,
        "tle_line1": "1 34146U 97051DZ  25355.47276654  .00002588  00000+0  67307-3 0  9999",
        "tle_line2": "2 34146  86.2834 345.9420 0026382 191.3369 294.1823 14.49100968882336"
      },
      "geometry": {
        "type": "Point",
        "coordinates": [
          170.2878398102953,
          -50.020983313412
        ]
      }
    },
    {
      "type": "Feature",
      "properties": {
        "norad_id": 34159,
        "name": "IRIDIUM 33 DEB",
        "group": "iridium-33-debris",
        "lat": -35.59564561818274,
        "lon": 41.8017668065734,
        "alt_km": 762.8141836493896,
        "timestamp": "2025-12-21T16:47:55.123542+00:00",
        "meta_object_name": "IRIDIUM 33 DEB",
        "meta_object_id": "1997-051EN",
        "meta_epoch": "2025-12-21T10:17:10.761792",
        "meta_mean_motion": 14.3851321,
        "meta_eccentricity": 0.0026079,
        "meta_inclination": 86.3499,
        "meta_ra_of_asc_node": 44.5364,
        "meta_arg_of_pericenter": 257.1437,
        "meta_mean_anomaly": 102.6848,
        "meta_ephemeris_type": 0,
        "meta_classification_type": "U",
        "meta_norad_cat_id": 34159,
        "meta_element_set_no": 999,
        "meta_rev_at_epoch": 88084,
        "meta_bstar": 0.00030289,
        "meta_mean_motion_dot": 9.48e-06,
        "meta_mean_motion_ddot": 0,
        "tle_line1": "1 34159U 97051EN  25355.42859678  .00000948  00000+0  30289-3 0  9998",
        "tle_line2": "2 34159  86.3499  44.5364 0026079 257.1437 102.6848 14.38513210880847"
      },
      "geometry": {
        "type": "Point",
        "coordinates": [
          41.8017668065734,
          -35.59564561818274
        ]
      }
    }
  ]
}